SL-14 R/B               
1 21423U 91042B   26055.72520023  .00000444  00000+0  53224-4 0  9998
2 21423  82.4900 232.3412 0015576 285.1575  74.7916 14.81814415851152
ERS-1                   
1 21574U 91050A   26056.04628166  .00000285  00000+0  10607-3 0  9997
2 21574  98.7890  73.9630 0031041 238.7400 121.0745 14.39437851813910
ARIANE 40 R/B           
1 21610U 91050F   26056.12730714  .00000241  00000+0  84694-4 0  9990
2 21610  98.2041 108.8337 0004343 108.3367 251.8297 14.42882973817185
INTERCOSMOS 25          
1 21819U 91086A   26056.19149555  .00001403  00000+0  26895-3 0  9993
2 21819  82.6072 317.5612 1487095 143.8565 227.2950 12.11958918495177
SL-8 R/B                
1 21876U 92008B   26056.15348403  .00000012  00000+0 -33631-5 0  9994
2 21876  82.9235 277.1058 0034893 167.6842 311.4648 13.75969931707695
SL-8 R/B                
1 21938U 92020B   26056.32506976  .00000076  00000+0  63599-4 0  9991
2 21938  82.9344 162.9390 0028220 334.6099  79.2073 13.75547886699436
USA 81                  
1 21949U 92023A   26056.29396810  .00000169  00000+0  55038-4 0  9998
2 21949  85.0108 138.5903 0002744  88.4169 271.7338 14.32363236 93018
COSMOS 2219             
1 22219U 92076A   26056.28329215  .00000357  00000+0  21178-3 0  9997
2 22219  71.0599  44.0024 0019575 223.6079 136.3497 14.14083983716625
SL-16 R/B               
1 22220U 92076B   26055.49353841  .00000270  00000+0  15828-3 0  9992
2 22220  70.9984 216.1695 0010921 120.6200 296.0036 14.16856265719963
COSMOS 2221             
1 22236U 92080A   26056.13098520  .00001568  00000+0  13690-3 0  9992
2 22236  82.5029 291.1116 0013035 231.8762 128.1286 14.96145631778915
SL-16 R/B               
1 22285U 92093B   26056.30156578  .00000126  00000+0  88877-4 0  9996
2 22285  71.0228  30.2703 0005981 307.0848  52.9728 14.15449096711408
COSMOS 2228             
1 22286U 92094A   26056.22244454  .00002147  00000+0  18330-3 0  9991
2 22286  82.5147 249.2497 0017679 348.5949  11.4870 14.97121406774192
